GPS BIIA-10 (PRN 32)    
1 20959U 90103A   09079.84205557  .00000002  00000-0  10000-3 0  1830
2 20959  55.2862 286.5406 0136208 291.9271  66.6530  2.00569474134132
GPS BIIA-11 (PRN 24)    
1 21552U 91047A   09079.54580212  .00000003  00000-0  10000-3 0  2202
2 21552  54.4926 224.5677 0069943 322.2689  37.2052  2.00563119129719
GPS BIIA-12 (PRN 25)    
1 21890U 92009A   09080.04884281 -.00000052  00000-0  10000-3 0  2144
2 21890  55.5123  36.2365 0119372 289.7167  69.0089  2.00565093125102
GPS BIIA-14 (PRN 26)    
1 22014U 92039A   09080.16048860 -.00000091  00000-0  10000-3 0    44
2 22014  56.8956 344.7083 0199814  56.2033 305.7151  2.00425685115876
GPS BIIA-15 (PRN 27)    
1 22108U 92058A   09079.19409033 -.00000049  00000-0  10000-3 0   114
2 22108  55.7789  38.3383 0213146 266.1984  91.3629  2.00391532121039
GPS BIIA-21 (PRN 09)    
1 22700U 93042A   09079.77214839 -.00000044  00000-0  10000-3 0  3835
2 22700  55.8915  39.6926 0200269  83.8855 278.3843  2.00567201115204
GPS BIIA-22 (PRN 05)    
1 22779U 93054A   09079.37063004  .00000031  00000-0  10000-3 0  9073
2 22779  54.1720  96.1979 0091955  74.3223 286.7550  2.00570972113953
GPS BIIA-23 (PRN 04)    
1 22877U 93068A   09080.40281979 -.00000005  00000-0  10000-3 0  6873
2 22877  53.9106 221.9815 0085506  26.5248 333.8716  2.00559999112868
GPS BIIA-24 (PRN 06)    
1 23027U 94016A   09080.11010639 -.00000016  00000-0  10000-3 0  7105
2 23027  53.4948 159.0630 0060281 277.3553  82.0055  2.00558802110161
GPS BIIA-25 (PRN 03)    
1 23833U 96019A   09080.12676210 -.00000012  00000-0  10000-3 0  8948
2 23833  53.0696 155.2231 0115698  51.3147 309.7643  2.00555269 95145
GPS BIIA-26 (PRN 10)    
1 23953U 96041A   09079.55404588  .00000005  00000-0  10000-3 0  3517
2 23953  54.9672 283.0690 0085315  33.7268 326.8412  2.00576805 92927
GPS BIIA-27 (PRN 30)    
1 24320U 96056A   09079.90333926  .00000039  00000-0  10000-3 0   871
2 24320  54.5105  99.2448 0109657  81.1365 280.1660  2.00568360 91598
GPS BIIR-02 (PRN 13)    
1 24876U 97035A   09079.49677004 -.00000095  00000-0  10000-3 0  8609
2 24876  57.0189 344.8612 0036267  86.4991 273.9504  2.00555937 85456
GPS BIIA-28 (PRN 08)    
1 25030U 97067A   09079.13068924 -.00000033  00000-0  10000-3 0  7705
2 25030  56.5920  45.0731 0104496 172.7484 187.4030  2.00563816 83348
GPS BIIR-03 (PRN 11)    
1 25933U 99055A   09079.76882612 -.00000019  00000-0  10000-3 0  3310
2 25933  50.9795 209.6806 0091179  38.8596 321.7609  2.00562502 69270
GPS BIIR-04 (PRN 20)    
1 26360U 00025A   09079.87070934  .00000006  00000-0  10000-3 0  4240
2 26360  54.0274 280.3442 0038063  75.2726 285.1751  2.00565727 64972
GPS BIIR-05 (PRN 28)    
1 26407U 00040A   09080.20937539  .00000045  00000-0  10000-3 0  3726
2 26407  55.3515 103.3450 0149723 243.5816 114.9341  2.00567289 63658
GPS BIIR-06 (PRN 14)    
1 26605U 00071A   09079.80908545 -.00000093  00000-0  10000-3 0  3723
2 26605  56.6498 343.7532 0045844 240.9886 118.5856  2.00574898 61248
GPS BIIR-07 (PRN 18)    
1 26690U 01004A   09079.68223831  .00000002  00000-0  10000-3 0  2614
2 26690  54.0521 283.4313 0101158 221.6589 137.5923  2.00553194 59659
GPS BIIR-08 (PRN 16)    
1 27663U 03005A   09080.02934161  .00000043  00000-0  10000-3 0  6241
2 27663  55.4551 102.8757 0052353 336.3156  23.5051  2.00551435 45017
GPS BIIR-09 (PRN 21)    
1 27704U 03010A   09079.59448530 -.00000001  00000-0  10000-3 0  5214
2 27704  53.5377 222.7931 0148919 210.0630 149.0442  2.00567088 43795
GPS BIIR-10 (PRN 22)    
1 28129U 03058A   09079.72063440  .00000001  00000-0  10000-3 0  1446
2 28129  53.9186 283.7636 0050594 255.4968 103.9682  2.00564384 38500
GPS BIIR-11 (PRN 19)    
1 28190U 04009A   09079.17342130 -.00000027  00000-0  10000-3 0   826
2 28190  54.8573 165.8414 0053560 336.4770  23.3116  2.00575221 36663
GPS BIIR-12 (PRN 23)    
1 28361U 04023A   09079.95524399 -.00000091  00000-0  10000-3 0  9074
2 28361  55.6190 341.9548 0057575 167.5982 192.5805  2.00568170 34768
GPS BIIR-13 (PRN 02)    
1 28474U 04045A   09079.94964954 -.00000004  00000-0  10000-3 0  7888
2 28474  53.9585 220.9412 0089317 158.6548 201.6862  2.00568903 32123
GPS BIIRM-1 (PRN 17)    
1 28874U 05038A   09080.30001200 -.00000016  00000-0  10000-3 0   441
2 28874  54.9897 162.5730 0043826 207.5022 152.3031  2.00566196 25555
GPS BIIRM-2 (PRN 31)    
1 29486U 06042A   09079.91080497 -.00000041  00000-0  10000-3 0  4270
2 29486  55.6902  41.5229 0073934 292.4662  66.7344  2.00565732 18243
GPS BIIRM-3 (PRN 12)    
1 29601U 06052A   09080.36031392  .00000047  00000-0  10000-3 0  4535
2 29601  55.3664 101.8977 0034734 312.2268  47.5459  2.00559896 17160
GPS BIIRM-4 (PRN 15)    
1 32260U 07047A   09080.65884776 -.00000087  00000-0  00000+0 0  2278
2 32260  54.8213 340.8374 0015560 316.7188  43.1973  2.00573561 10566
GPS BIIRM-5 (PRN 29)    
1 32384U 07062A   09079.48998102 -.00000023  00000-0  10000-3 0  2477
2 32384  54.9968 163.0733 0035866 283.0865  76.5609  2.00557075  9267
GPS BIIRM-6 (PRN 07)    
1 32711U 08012A   09079.08144456 -.00000043  00000-0  10000-3 0  1457
2 32711  55.3790  41.6961 0022863 173.6626 186.3613  2.00563350  7463
